{
  "type": "FeatureCollection",
  "features": [
    {
      "type": "Feature",
      "properties": {
        "norad_id": 31487,
        "name": "FENGYUN 1C DEB",
        "group": "fengyun-1c-debris",
        "lat": 76.91335021202099,
        "lon": 48.89476189184178,
        "alt_km": 971.321662621509,
        "timestamp": "2025-12-14T11:29:50.343084+00:00",
        "meta_object_name": "FENGYUN 1C DEB",
        "meta_object_id": "1999-025BWB",
        "meta_epoch": "2025-12-09T17:44:32.604000",
        "meta_mean_motion": 13.97711956,
        "meta_eccentricity": 0.01202997,
        "meta_inclination": 102.4139,
        "meta_ra_of_asc_node": 151.1598,
        "meta_arg_of_pericenter": 313.5334,
        "meta_mean_anomaly": 61.6285,
        "meta_ephemeris_type": 0,
        "meta_classification_type": "U",
        "meta_norad_cat_id": 31487,
        "meta_element_set_no": 999,
        "meta_rev_at_epoch": 94370,
        "meta_bstar": 0.0022584983,
        "meta_mean_motion_dot": 3.321e-05,
        "meta_mean_motion_ddot": 0,
        "tle_line1": "1 31487U 99025BWB 25343.73926625  .00003321  00000+0  22585-2 0  9997",
        "tle_line2": "2 31487 102.4139 151.1598 0120299 313.5334  61.6285 13.97711956943700"
      },
      "geometry": {
        "type": "Point",
        "coordinates": [
          48.89476189184178,
          76.91335021202099
        ]
      }
    },
    {
      "type": "Feature",
      "properties": {
        "norad_id": 31491,
        "name": "FENGYUN 1C DEB",
        "group": "fengyun-1c-debris",
        "lat": 54.53715118783356,
        "lon": -116.14166003701776,
        "alt_km": 862.2793007409118,
        "timestamp": "2025-12-14T11:29:50.343094+00:00",
        "meta_object_name": "FENGYUN 1C DEB",
        "meta_object_id": "1999-025BWE",
        "meta_epoch": "2025-12-13T04:44:11.383872",
        "meta_mean_motion": 14.17269112,
        "meta_eccentricity": 0.00518484,
        "meta_inclination": 99.3043,
        "meta_ra_of_asc_node": 255.8234,
        "meta_arg_of_pericenter": 267.3751,
        "meta_mean_anomaly": 92.1487,
        "meta_ephemeris_type": 0,
        "meta_classification_type": "U",
        "meta_norad_cat_id": 31491,
        "meta_element_set_no": 999,
        "meta_rev_at_epoch": 63734,
        "meta_bstar": 0.0029952157,
        "meta_mean_motion_dot": 6.086e-05,
        "meta_mean_motion_ddot": 0,
        "tle_line1": "1 31491U 99025BWE 25347.19735398  .00006086  00000+0  29952-2 0  9997",
        "tle_line2": "2 31491  99.3043 255.8234 0051848 267.3751  92.1487 14.17269112637342"
      },
      "geometry": {
        "type": "Point",
        "coordinates": [
          -116.14166003701776,
          54.53715118783356
        ]
      }
    },
    {
      "type": "Feature",
      "properties": {
        "norad_id": 31492,
        "name": "FENGYUN 1C DEB",
        "group": "fengyun-1c-debris",
        "lat": -75.46518543495964,
        "lon": -168.38290093839575,
        "alt_km": 658.7814816863138,
        "timestamp": "2025-12-14T11:29:50.343103+00:00",
        "meta_object_name": "FENGYUN 1C DEB",
        "meta_object_id": "1999-025BWF",
        "meta_epoch": "2025-12-13T09:43:40.259712",
        "meta_mean_motion": 14.70813595,
        "meta_eccentricity": 0.00645282,
        "meta_inclination": 98.8565,
        "meta_ra_of_asc_node": 153.4808,
        "meta_arg_of_pericenter": 6.7668,
        "meta_mean_anomaly": 353.4392,
        "meta_ephemeris_type": 0,
        "meta_classification_type": "U",
        "meta_norad_cat_id": 31492,
        "meta_element_set_no": 999,
        "meta_rev_at_epoch": 96516,
        "meta_bstar": 0.0056827225,
        "meta_mean_motion_dot": 0.00035971,
        "meta_mean_motion_ddot": 0,
        "tle_line1": "1 31492U 99025BWF 25347.40532708  .00035971  00000+0  56827-2 0  9998",
        "tle_line2": "2 31492  98.8565 153.4808 0064528   6.7668 353.4392 14.70813595965168"
      },
      "geometry": {
        "type": "Point",
        "coordinates": [
          -168.38290093839575,
          -75.46518543495964
        ]
      }
    },
    {
      "type": "Feature",
      "properties": {
        "norad_id": 31493,
        "name": "FENGYUN 1C DEB",
        "group": "fengyun-1c-debris",
        "lat": 69.15534671129335,
        "lon": 142.5587031110616,
        "alt_km": 871.6080983688989,
        "timestamp": "2025-12-14T11:29:50.343113+00:00",
        "meta_object_name": "FENGYUN 1C DEB",
        "meta_object_id": "1999-025BWG",
        "meta_epoch": "2025-12-12T02:05:14.361792",
        "meta_mean_motion": 13.92967952,
        "meta_eccentricity": 0.01169776,
        "meta_inclination": 100.136,
        "meta_ra_of_asc_node": 291.9196,
        "meta_arg_of_pericenter": 177.3499,
        "meta_mean_anomaly": 182.8302,
        "meta_ephemeris_type": 0,
        "meta_classification_type": "U",
        "meta_norad_cat_id": 31493,
        "meta_element_set_no": 999,
        "meta_rev_at_epoch": 59857,
        "meta_bstar": 0.0010865995,
        "meta_mean_motion_dot": 1.441e-05,
        "meta_mean_motion_ddot": 0,
        "tle_line1": "1 31493U 99025BWG 25346.08697178  .00001441  00000+0  10866-2 0  9993",
        "tle_line2": "2 31493 100.1360 291.9196 0116977 177.3499 182.8302 13.92967952598572"
      },
      "geometry": {
        "type": "Point",
        "coordinates": [
          142.5587031110616,
          69.15534671129335
        ]
      }
    },
    {
      "type": "Feature",
      "properties": {
        "norad_id": 31495,
        "name": "FENGYUN 1C DEB",
        "group": "fengyun-1c-debris",
        "lat": 15.682770009502192,
        "lon": 44.3204609902452,
        "alt_km": 776.9367652036108,
        "timestamp": "2025-12-14T11:29:50.343123+00:00",
        "meta_object_name": "FENGYUN 1C DEB",
        "meta_object_id": "1999-025BWJ",
        "meta_epoch": "2025-12-13T11:12:35.488224",
        "meta_mean_motion": 14.29218227,
        "meta_eccentricity": 0.00254692,
        "meta_inclination": 99.1205,
        "meta_ra_of_asc_node": 220.6771,
        "meta_arg_of_pericenter": 175.9955,
        "meta_mean_anomaly": 184.1434,
        "meta_ephemeris_type": 0,
        "meta_classification_type": "U",
        "meta_norad_cat_id": 31495,
        "meta_element_set_no": 999,
        "meta_rev_at_epoch": 63401,
        "meta_bstar": 0.0019333038,
        "meta_mean_motion_dot": 4.884e-05,
        "meta_mean_motion_ddot": 0,
        "tle_line1": "1 31495U 99025BWJ 25347.46707741  .00004884  00000+0  19333-2 0  9998",
        "tle_line2": "2 31495  99.1205 220.6771 0025469 175.9955 184.1434 14.29218227634019"
      },
      "geometry": {
        "type": "Point",
        "coordinates": [
          44.3204609902452,
          15.682770009502192
        ]
      }
    },
    {
      "type": "Feature",
      "properties": {
        "norad_id": 31497,
        "name": "FENGYUN 1C DEB",
        "group": "fengyun-1c-debris",
        "lat": 22.107849625120668,
        "lon": -31.429869552760437,
        "alt_km": 674.3416824735041,
        "timestamp": "2025-12-14T11:29:50.343133+00:00",
        "meta_object_name": "FENGYUN 1C DEB",
        "meta_object_id": "1999-025BWL",
        "meta_epoch": "2025-12-13T05:26:05.630784",
        "meta_mean_motion": 14.39226994,
        "meta_eccentricity": 0.01677661,
        "meta_inclination": 98.3706,
        "meta_ra_of_asc_node": 330.7757,
        "meta_arg_of_pericenter": 341.713,
        "meta_mean_anomaly": 33.1723,
        "meta_ephemeris_type": 0,
        "meta_classification_type": "U",
        "meta_norad_cat_id": 31497,
        "meta_element_set_no": 999,
        "meta_rev_at_epoch": 97562,
        "meta_bstar": 0.00044059049,
        "meta_mean_motion_dot": 1.561e-05,
        "meta_mean_motion_ddot": 0,
        "tle_line1": "1 31497U 99025BWL 25347.22645406  .00001561  00000+0  44059-3 0  9996",
        "tle_line2": "2 31497  98.3706 330.7757 0167766 341.7130  33.1723 14.39226994975620"
      },
      "geometry": {
        "type": "Point",
        "coordinates": [
          -31.429869552760437,
          22.107849625120668
        ]
      }
    },
    {
      "type": "Feature",
      "properties": {
        "norad_id": 31498,
        "name": "FENGYUN 1C DEB",
        "group": "fengyun-1c-debris",
        "lat": -80.57312455634516,
        "lon": 23.701243960436397,
        "alt_km": 1091.4867154558387,
        "timestamp": "2025-12-14T11:29:50.343143+00:00",
        "meta_object_name": "FENGYUN 1C DEB",
        "meta_object_id": "1999-025BWM",
        "meta_epoch": "2025-12-13T04:32:25.456992",
        "meta_mean_motion": 13.76998052,
        "meta_eccentricity": 0.02187347,
        "meta_inclination": 98.4856,
        "meta_ra_of_asc_node": 318.5033,
        "meta_arg_of_pericenter": 143.732,
        "meta_mean_anomaly": 217.8888,
        "meta_ephemeris_type": 0,
        "meta_classification_type": "U",
        "meta_norad_cat_id": 31498,
        "meta_element_set_no": 999,
        "meta_rev_at_epoch": 92740,
        "meta_bstar": 0.0019665531,
        "meta_mean_motion_dot": 2.28e-05,
        "meta_mean_motion_ddot": 0,
        "tle_line1": "1 31498U 99025BWM 25347.18918353  .00002280  00000+0  19666-2 0  9990",
        "tle_line2": "2 31498  98.4856 318.5033 0218734 143.7320 217.8888 13.76998052927409"
      },
      "geometry": {
        "type": "Point",
        "coordinates": [
          23.701243960436397,
          -80.57312455634516
        ]
      }
    }
  ]
}